start=new Date('2023-06-01T00:00:00.000Z').valueOf();
sats=[{"REV_AT_EPOCH":"4161","CENTER_NAME":"EARTH","SEMIMAJOR_AXIS":"6917.887","ELEMENT_SET_NO":"999","TLE_LINE2":"2 53728  53.2158 121.9628 0001085  82.5026 277.6089 15.08837676 41619","EPHEMERIS_TYPE":"0","ECCENTRICITY":"0.00010850","RA_OF_ASC_NODE":"121.9628","RCS_SIZE":"LARGE","TLE_LINE1":"1 53728U 22107AE  23151.61004320 -.00000090  00000-0  12402-4 0  9998","SITE":"AFETR","OBJECT_TYPE":"PAYLOAD","DECAY_DATE":null,"LAUNCH_DATE":"2022-09-05","EPOCH":"2023-05-31T14:38:27.732480","ARG_OF_PERICENTER":"82.5026","APOAPSIS":"540.503","OBJECT_ID":"2022-107AE","MEAN_MOTION_DOT":"-0.00000090","MEAN_MOTION":"15.08837676","REF_FRAME":"TEME","MEAN_MOTION_DDOT":"0.0000000000000","TIME_SYSTEM":"UTC","FILE":"3922037","MEAN_ELEMENT_THEORY":"SGP4","MEAN_ANOMALY":"277.6089","INCLINATION":"53.2158","PERIOD":"95.438","BSTAR":"0.00001240200000","GP_ID":"232928943","COUNTRY_CODE":"US","OBJECT_NAME":"STARLINK-4640","PERIAPSIS":"539.002","NORAD_CAT_ID":"53728","CLASSIFICATION_TYPE":"U"},{"REV_AT_EPOCH":"4164","SEMIMAJOR_AXIS":"6917.888","CENTER_NAME":"EARTH","ELEMENT_SET_NO":"999","EPHEMERIS_TYPE":"0","TLE_LINE2":"2 53729  53.2158 122.0537 0001124  83.4757 276.6363 15.08837424 41644","ECCENTRICITY":"0.00011240","RCS_SIZE":"LARGE","RA_OF_ASC_NODE":"122.0537","TLE_LINE1":"1 53729U 22107AF  23151.62478243  .00000262  00000-0  34572-4 0  9991","OBJECT_TYPE":"PAYLOAD","SITE":"AFETR","DECAY_DATE":null,"LAUNCH_DATE":"2022-09-05","EPOCH":"2023-05-31T14:59:41.201952","ARG_OF_PERICENTER":"83.4757","OBJECT_ID":"2022-107AF","APOAPSIS":"540.531","MEAN_MOTION":"15.08837424","MEAN_MOTION_DOT":"0.00000262","TIME_SYSTEM":"UTC","MEAN_MOTION_DDOT":"0.0000000000000","REF_FRAME":"TEME","FILE":"3922037","MEAN_ANOMALY":"276.6363","MEAN_ELEMENT_THEORY":"SGP4","GP_ID":"232929194","COUNTRY_CODE":"US","PERIOD":"95.438","BSTAR":"0.00003457200000","INCLINATION":"53.2158","OBJECT_NAME":"STARLINK-4651","PERIAPSIS":"538.976","CLASSIFICATION_TYPE":"U","NORAD_CAT_ID":"53729"},{"ARG_OF_PERICENTER":"70.6244","EPOCH":"2023-05-31T14:49:03.340992","MEAN_MOTION":"15.08844074","MEAN_MOTION_DOT":"0.00000984","APOAPSIS":"540.513","OBJECT_ID":"2022-107AG","SITE":"AFETR","OBJECT_TYPE":"PAYLOAD","TLE_LINE1":"1 53730U 22107AG  23151.61739978  .00000984  00000-0  79900-4 0  9992","LAUNCH_DATE":"2022-09-05","DECAY_DATE":null,"OBJECT_NAME":"STARLINK-4641","NORAD_CAT_ID":"53730","CLASSIFICATION_TYPE":"U","PERIAPSIS":"538.953","FILE":"3922037","MEAN_MOTION_DDOT":"0.0000000000000","REF_FRAME":"TEME","TIME_SYSTEM":"UTC","PERIOD":"95.437","INCLINATION":"53.2156","BSTAR":"0.00007990000000","GP_ID":"232927942","COUNTRY_CODE":"US","MEAN_ANOMALY":"289.4870","MEAN_ELEMENT_THEORY":"SGP4","CENTER_NAME":"EARTH","SEMIMAJOR_AXIS":"6917.868","ELEMENT_SET_NO":"999","REV_AT_EPOCH":"4161","RCS_SIZE":"LARGE","RA_OF_ASC_NODE":"122.0067","ECCENTRICITY":"0.00011270","TLE_LINE2":"2 53730  53.2156 122.0067 0001127  70.6244 289.4870 15.08844074 41615","EPHEMERIS_TYPE":"0"},{"REV_AT_EPOCH":"4164","CENTER_NAME":"EARTH","SEMIMAJOR_AXIS":"6917.888","ELEMENT_SET_NO":"999","TLE_LINE2":"2 53731  53.2154 122.0774 0001075  87.1428 272.9688 15.08837377 41643","EPHEMERIS_TYPE":"0","ECCENTRICITY":"0.00010750","RA_OF_ASC_NODE":"122.0774","RCS_SIZE":"LARGE","TLE_LINE1":"1 53731U 22107AH  23151.62846749  .00000088  00000-0  23637-4 0  9990","SITE":"AFETR","OBJECT_TYPE":"PAYLOAD","DECAY_DATE":null,"LAUNCH_DATE":"2022-09-05","EPOCH":"2023-05-31T15:04:59.591136","ARG_OF_PERICENTER":"87.1428","APOAPSIS":"540.497","OBJECT_ID":"2022-107AH","MEAN_MOTION":"15.08837377","MEAN_MOTION_DOT":"0.00000088","MEAN_MOTION_DDOT":"0.0000000000000","REF_FRAME":"TEME","TIME_SYSTEM":"UTC","FILE":"3922037","MEAN_ELEMENT_THEORY":"SGP4","MEAN_ANOMALY":"272.9688","PERIOD":"95.438","INCLINATION":"53.2154","BSTAR":"0.00002363700000","COUNTRY_CODE":"US","GP_ID":"232928192","OBJECT_NAME":"STARLINK-4636","PERIAPSIS":"539.010","NORAD_CAT_ID":"53731","CLASSIFICATION_TYPE":"U"},{"ECCENTRICITY":"0.00012880","TLE_LINE2":"2 53732  53.2159 123.5241 0001288  82.0582 278.0556 15.08831885 41565","EPHEMERIS_TYPE":"0","RCS_SIZE":"LARGE","RA_OF_ASC_NODE":"123.5241","REV_AT_EPOCH":"4156","ELEMENT_SET_NO":"999","CENTER_NAME":"EARTH","SEMIMAJOR_AXIS":"6917.905","PERIOD":"95.438","INCLINATION":"53.2159","BSTAR":"-0.00006429500000","GP_ID":"232896181","COUNTRY_CODE":"US","MEAN_ANOMALY":"278.0556","MEAN_ELEMENT_THEORY":"SGP4","FILE":"3921767","MEAN_MOTION_DDOT":"0.0000000000000","REF_FRAME":"TEME","TIME_SYSTEM":"UTC","NORAD_CAT_ID":"53732","CLASSIFICATION_TYPE":"U","PERIAPSIS":"538.879","OBJECT_NAME":"STARLINK-4661","LAUNCH_DATE":"2022-09-05","DECAY_DATE":null,"SITE":"AFETR","OBJECT_TYPE":"PAYLOAD","TLE_LINE1":"1 53732U 22107AJ  23151.29085450 -.00001311  00000-0 -64295-4 0  9995","MEAN_MOTION_DOT":"-0.00001311","MEAN_MOTION":"15.08831885","APOAPSIS":"540.661","OBJECT_ID":"2022-107AJ","ARG_OF_PERICENTER":"82.0582","EPOCH":"2023-05-31T06:58:49.828800"},{"OBJECT_NAME":"STARLINK-4574","PERIAPSIS":"538.903","NORAD_CAT_ID":"53733","CLASSIFICATION_TYPE":"U","REF_FRAME":"TEME","MEAN_MOTION_DDOT":"0.0000000000000","TIME_SYSTEM":"UTC","FILE":"3922037","MEAN_ELEMENT_THEORY":"SGP4","MEAN_ANOMALY":"270.7968","PERIOD":"95.438","INCLINATION":"53.2155","BSTAR":"0.00003724100000","GP_ID":"232928695","COUNTRY_CODE":"US","EPOCH":"2023-05-31T15:15:36.374688","ARG_OF_PERICENTER":"89.3164","APOAPSIS":"540.596","OBJECT_ID":"2022-107AK","MEAN_MOTION_DOT":"0.00000305","MEAN_MOTION":"15.08838656","TLE_LINE1":"1 53733U 22107AK  23151.63583767  .00000305  00000-0  37241-4 0  9999","SITE":"AFETR","OBJECT_TYPE":"PAYLOAD","DECAY_DATE":null,"LAUNCH_DATE":"2022-09-05","RA_OF_ASC_NODE":"122.1243","RCS_SIZE":"LARGE","TLE_LINE2":"2 53733  53.2155 122.1243 0001223  89.3164 270.7968 15.08838656 41642","EPHEMERIS_TYPE":"0","ECCENTRICITY":"0.00012230","CENTER_NAME":"EARTH","SEMIMAJOR_AXIS":"6917.884","ELEMENT_SET_NO":"999","REV_AT_EPOCH":"4164"},{"OBJECT_TYPE":"PAYLOAD","SITE":"AFETR","TLE_LINE1":"1 53734U 22107AL  23151.62111338 -.00001458  00000-0 -73562-4 0  9998","LAUNCH_DATE":"2022-09-05","DECAY_DATE":null,"ARG_OF_PERICENTER":"88.9861","EPOCH":"2023-05-31T14:54:24.196032","MEAN_MOTION_DOT":"-0.00001458","MEAN_MOTION":"15.08821768","OBJECT_ID":"2022-107AL","APOAPSIS":"540.479","FILE":"3922037","TIME_SYSTEM":"UTC","MEAN_MOTION_DDOT":"0.0000000000000","REF_FRAME":"TEME","GP_ID":"232927443","COUNTRY_CODE":"US","INCLINATION":"53.2157","PERIOD":"95.439","BSTAR":"-0.00007356200000","MEAN_ANOMALY":"271.1243","MEAN_ELEMENT_THEORY":"SGP4","OBJECT_NAME":"STARLINK-4616","CLASSIFICATION_TYPE":"U","NORAD_CAT_ID":"53734","PERIAPSIS":"539.123","REV_AT_EPOCH":"4164","SEMIMAJOR_AXIS":"6917.936","CENTER_NAME":"EARTH","ELEMENT_SET_NO":"999","ECCENTRICITY":"0.00009800","EPHEMERIS_TYPE":"0","TLE_LINE2":"2 53734  53.2157 122.0326 0000980  88.9861 271.1243 15.08821768 41641","RA_OF_ASC_NODE":"122.0326","RCS_SIZE":"LARGE"},{"TLE_LINE1":"1 53735U 22107AM  23151.66430771  .00000571  00000-0  53930-4 0  9998","OBJECT_TYPE":"PAYLOAD","SITE":"AFETR","DECAY_DATE":null,"LAUNCH_DATE":"2022-09-05","EPOCH":"2023-05-31T15:56:36.186144","ARG_OF_PERICENTER":"90.1152","OBJECT_ID":"2022-107AM","APOAPSIS":"540.484","MEAN_MOTION":"15.08838608","MEAN_MOTION_DOT":"0.00000571","TIME_SYSTEM":"UTC","REF_FRAME":"TEME","MEAN_MOTION_DDOT":"0.0000000000000","FILE":"3922037","MEAN_ANOMALY":"269.9962","MEAN_ELEMENT_THEORY":"SGP4","GP_ID":"232927693","COUNTRY_CODE":"US","PERIOD":"95.438","INCLINATION":"53.2159","BSTAR":"0.00005393000000","OBJECT_NAME":"STARLINK-4618","PERIAPSIS":"539.016","CLASSIFICATION_TYPE":"U","NORAD_CAT_ID":"53735","REV_AT_EPOCH":"4151","SEMIMAJOR_AXIS":"6917.885","CENTER_NAME":"EARTH","ELEMENT_SET_NO":"999","EPHEMERIS_TYPE":"0","TLE_LINE2":"2 53735  53.2159 131.5796 0001061  90.1152 269.9962 15.08838608 41519","ECCENTRICITY":"0.00010610","RA_OF_ASC_NODE":"131.5796","RCS_SIZE":"LARGE"},{"ELEMENT_SET_NO":"999","SEMIMAJOR_AXIS":"6917.890","CENTER_NAME":"EARTH","REV_AT_EPOCH":"4164","RA_OF_ASC_NODE":"122.1010","RCS_SIZE":"LARGE","EPHEMERIS_TYPE":"0","TLE_LINE2":"2 53736  53.2167 122.1010 0001292  90.5092 269.6048 15.08836748 41646","ECCENTRICITY":"0.00012920","OBJECT_ID":"2022-107AN","APOAPSIS":"540.649","MEAN_MOTION_DOT":"0.00000132","MEAN_MOTION":"15.08836748","EPOCH":"2023-05-31T15:10:18.048576","ARG_OF_PERICENTER":"90.5092","DECAY_DATE":null,"LAUNCH_DATE":"2022-09-05","TLE_LINE1":"1 53736U 22107AN  23151.63215334  .00000132  00000-0  26362-4 0  9994","OBJECT_TYPE":"PAYLOAD","SITE":"AFETR","PERIAPSIS":"538.862","CLASSIFICATION_TYPE":"U","NORAD_CAT_ID":"53736","OBJECT_NAME":"STARLINK-4652","MEAN_ELEMENT_THEORY":"SGP4","MEAN_ANOMALY":"269.6048","COUNTRY_CODE":"US","GP_ID":"232928944","BSTAR":"0.00002636200000","PERIOD":"95.438","INCLINATION":"53.2167","TIME_SYSTEM":"UTC","REF_FRAME":"TEME","MEAN_MOTION_DDOT":"0.0000000000000","FILE":"3922037"},{"ELEMENT_SET_NO":"999","CENTER_NAME":"EARTH","SEMIMAJOR_AXIS":"6917.886","REV_AT_EPOCH":"4166","RA_OF_ASC_NODE":"131.6028","RCS_SIZE":"LARGE","TLE_LINE2":"2 53737  53.2155 131.6028 0001015  89.7817 270.3291 15.08838214 41667","EPHEMERIS_TYPE":"0","ECCENTRICITY":"0.00010150","APOAPSIS":"540.453","OBJECT_ID":"2022-107AP","MEAN_MOTION_DOT":"0.00000378","MEAN_MOTION":"15.08838214","EPOCH":"2023-05-31T16:01:54.419808","ARG_OF_PERICENTER":"89.7817","DECAY_DATE":null,"LAUNCH_DATE":"2022-09-05","TLE_LINE1":"1 53737U 22107AP  23151.66799097  .00000378  00000-0  41811-4 0  9999","SITE":"AFETR","OBJECT_TYPE":"PAYLOAD","PERIAPSIS":"539.049","NORAD_CAT_ID":"53737","CLASSIFICATION_TYPE":"U","OBJECT_NAME":"STARLINK-4646","MEAN_ANOMALY":"270.3291","MEAN_ELEMENT_THEORY":"SGP4","PERIOD":"95.438","BSTAR":"0.00004181100000","INCLINATION":"53.2155","COUNTRY_CODE":"US","GP_ID":"232929195","MEAN_MOTION_DDOT":"0.0000000000000","REF_FRAME":"TEME","TIME_SYSTEM":"UTC","FILE":"3922037"}];
